[{"OBJECT_NAME":"STARLINK-31425","OBJECT_ID":"2024-049Y","EPOCH":"2026-03-09T06:24:57.898656","MEAN_MOTION":15.27567132,"ECCENTRICITY":6.751e-5,"INCLINATION":43.0035,"RA_OF_ASC_NODE":145.735,"ARG_OF_PERICENTER":246.9018,"MEAN_ANOMALY":113.1763,"EPHEMERIS_TYPE":0,"CLASSIFICATION_TYPE":"U","NORAD_CAT_ID":59253,"ELEMENT_SET_NO":999,"REV_AT_EPOCH":11233,"BSTAR":-5.3437012e-5,"MEAN_MOTION_DOT":-1.731e-5,"MEAN_MOTION_DDOT":0},{"OBJECT_NAME":"OTTER","OBJECT_ID":"2025-009Q","EPOCH":"2026-03-09T17:21:07.902432","MEAN_MOTION":15.27809545,"ECCENTRICITY":0.00035728,"INCLINATION":97.4065,"RA_OF_ASC_NODE":151.3812,"ARG_OF_PERICENTER":310.771,"MEAN_ANOMALY":49.3219,"EPHEMERIS_TYPE":0,"CLASSIFICATION_TYPE":"U","NORAD_CAT_ID":62623,"ELEMENT_SET_NO":999,"REV_AT_EPOCH":6372,"BSTAR":0.00045151206,"MEAN_MOTION_DOT":0.00012198,"MEAN_MOTION_DDOT":0}]
